{
  "type": "FeatureCollection",
  "features": [
    {
      "type": "Feature",
      "properties": {
        "norad_id": 40894,
        "name": "GAOFEN-9 01",
        "group": "resource",
        "lat": -35.53995430306493,
        "lon": -162.24143880678702,
        "alt_km": 647.9331542065001,
        "timestamp": "2025-12-10T04:57:29.262858+00:00",
        "meta_object_name": "GAOFEN-9 01",
        "meta_object_id": "2015-047A",
        "meta_epoch": "2025-12-09T21:30:31.788000",
        "meta_mean_motion": 14.82412003,
        "meta_eccentricity": 0.0028599,
        "meta_inclination": 97.6545,
        "meta_ra_of_asc_node": 22.9745,
        "meta_arg_of_pericenter": 43.2747,
        "meta_mean_anomaly": 317.0706,
        "meta_ephemeris_type": 0,
        "meta_classification_type": "U",
        "meta_norad_cat_id": 40894,
        "meta_element_set_no": 999,
        "meta_rev_at_epoch": 55214,
        "meta_bstar": 0.00026093,
        "meta_mean_motion_dot": 2.054e-05,
        "meta_mean_motion_ddot": 0,
        "tle_line1": "1 40894U 15047A   25343.89620125  .00002054  00000+0  26093-3 0  9995",
        "tle_line2": "2 40894  97.6545  22.9745 0028599  43.2747 317.0706 14.82412003552148"
      },
      "geometry": {
        "type": "Point",
        "coordinates": [
          -162.24143880678702,
          -35.53995430306493
        ]
      }
    },
    {
      "type": "Feature",
      "properties": {
        "norad_id": 41026,
        "name": "YAOGAN-28",
        "group": "resource",
        "lat": -14.420204115321454,
        "lon": 123.95445339661758,
        "alt_km": 504.879464282958,
        "timestamp": "2025-12-10T04:57:29.262868+00:00",
        "meta_object_name": "YAOGAN-28",
        "meta_object_id": "2015-064A",
        "meta_epoch": "2025-12-09T19:34:07.332096",
        "meta_mean_motion": 15.24273093,
        "meta_eccentricity": 0.0012235,
        "meta_inclination": 97.2807,
        "meta_ra_of_asc_node": 121.6905,
        "meta_arg_of_pericenter": 135.5955,
        "meta_mean_anomaly": 224.6266,
        "meta_ephemeris_type": 0,
        "meta_classification_type": "U",
        "meta_norad_cat_id": 41026,
        "meta_element_set_no": 999,
        "meta_rev_at_epoch": 56180,
        "meta_bstar": 0.00054967,
        "meta_mean_motion_dot": 0.00013392,
        "meta_mean_motion_ddot": 0,
        "tle_line1": "1 41026U 15064A   25343.81536264  .00013392  00000+0  54967-3 0  9992",
        "tle_line2": "2 41026  97.2807 121.6905 0012235 135.5955 224.6266 15.24273093561802"
      },
      "geometry": {
        "type": "Point",
        "coordinates": [
          123.95445339661758,
          -14.420204115321454
        ]
      }
    },
    {
      "type": "Feature",
      "properties": {
        "norad_id": 41038,
        "name": "YAOGAN-29",
        "group": "resource",
        "lat": 77.71709940303948,
        "lon": -132.26013082592837,
        "alt_km": 613.045917751122,
        "timestamp": "2025-12-10T04:57:29.262879+00:00",
        "meta_object_name": "YAOGAN-29",
        "meta_object_id": "2015-069A",
        "meta_epoch": "2025-12-09T20:24:52.729920",
        "meta_mean_motion": 14.82877918,
        "meta_eccentricity": 4.06e-05,
        "meta_inclination": 98.0218,
        "meta_ra_of_asc_node": 7.0126,
        "meta_arg_of_pericenter": 353.8871,
        "meta_mean_anomaly": 6.2337,
        "meta_ephemeris_type": 0,
        "meta_classification_type": "U",
        "meta_norad_cat_id": 41038,
        "meta_element_set_no": 999,
        "meta_rev_at_epoch": 54256,
        "meta_bstar": 8.9458e-05,
        "meta_mean_motion_dot": 6.71e-06,
        "meta_mean_motion_ddot": 0,
        "tle_line1": "1 41038U 15069A   25343.85061030  .00000671  00000+0  89458-4 0  9998",
        "tle_line2": "2 41038  98.0218   7.0126 0000406 353.8871   6.2337 14.82877918542565"
      },
      "geometry": {
        "type": "Point",
        "coordinates": [
          -132.26013082592837,
          77.71709940303948
        ]
      }
    },
    {
      "type": "Feature",
      "properties": {
        "norad_id": 41167,
        "name": "KENT RIDGE 1",
        "group": "resource",
        "lat": -12.259295650791477,
        "lon": 175.58052911143196,
        "alt_km": 504.75496303974796,
        "timestamp": "2025-12-10T04:57:29.262889+00:00",
        "meta_object_name": "KENT RIDGE 1",
        "meta_object_id": "2015-077B",
        "meta_epoch": "2025-12-09T21:20:01.737600",
        "meta_mean_motion": 15.21601567,
        "meta_eccentricity": 0.0008532,
        "meta_inclination": 14.9788,
        "meta_ra_of_asc_node": 232.2962,
        "meta_arg_of_pericenter": 90.2143,
        "meta_mean_anomaly": 269.9156,
        "meta_ephemeris_type": 0,
        "meta_classification_type": "U",
        "meta_norad_cat_id": 41167,
        "meta_element_set_no": 999,
        "meta_rev_at_epoch": 55220,
        "meta_bstar": 0.00027132,
        "meta_mean_motion_dot": 7.075e-05,
        "meta_mean_motion_ddot": 0,
        "tle_line1": "1 41167U 15077B   25343.88890900  .00007075  00000+0  27132-3 0  9994",
        "tle_line2": "2 41167  14.9788 232.2962 0008532  90.2143 269.9156 15.21601567552207"
      },
      "geometry": {
        "type": "Point",
        "coordinates": [
          175.58052911143196,
          -12.259295650791477
        ]
      }
    },
    {
      "type": "Feature",
      "properties": {
        "norad_id": 41194,
        "name": "GAOFEN-4",
        "group": "resource",
        "lat": -0.015634517141793258,
        "lon": -100.7032295801639,
        "alt_km": 35781.6532846167,
        "timestamp": "2025-12-10T04:57:29.262902+00:00",
        "meta_object_name": "GAOFEN-4",
        "meta_object_id": "2015-083A",
        "meta_epoch": "2025-12-09T19:12:45.993312",
        "meta_mean_motion": 1.00270577,
        "meta_eccentricity": 0.0003595,
        "meta_inclination": 0.1632,
        "meta_ra_of_asc_node": 80.7608,
        "meta_arg_of_pericenter": 107.0027,
        "meta_mean_anomaly": 284.9186,
        "meta_ephemeris_type": 0,
        "meta_classification_type": "U",
        "meta_norad_cat_id": 41194,
        "meta_element_set_no": 999,
        "meta_rev_at_epoch": 3663,
        "meta_bstar": 0,
        "meta_mean_motion_dot": -3.32e-06,
        "meta_mean_motion_ddot": 0,
        "tle_line1": "1 41194U 15083A   25343.80053233 -.00000332  00000+0  00000+0 0  9994",
        "tle_line2": "2 41194   0.1632  80.7608 0003595 107.0027 284.9186  1.00270577 36636"
      },
      "geometry": {
        "type": "Point",
        "coordinates": [
          -100.7032295801639,
          -0.015634517141793258
        ]
      }
    },
    {
      "type": "Feature",
      "properties": {
        "norad_id": 41240,
        "name": "JASON-3",
        "group": "resource",
        "lat": 66.0249412076897,
        "lon": -106.04968101874903,
        "alt_km": 1309.149120244816,
        "timestamp": "2025-12-10T04:57:29.262913+00:00",
        "meta_object_name": "JASON-3",
        "meta_object_id": "2016-002A",
        "meta_epoch": "2025-12-09T19:10:12.499392",
        "meta_mean_motion": 12.87626359,
        "meta_eccentricity": 0.0007147,
        "meta_inclination": 66.0389,
        "meta_ra_of_asc_node": 164.0074,
        "meta_arg_of_pericenter": 270.6112,
        "meta_mean_anomaly": 89.4088,
        "meta_ephemeris_type": 0,
        "meta_classification_type": "U",
        "meta_norad_cat_id": 41240,
        "meta_element_set_no": 999,
        "meta_rev_at_epoch": 46286,
        "meta_bstar": 5.513e-05,
        "meta_mean_motion_dot": -4.8e-07,
        "meta_mean_motion_ddot": 0,
        "tle_line1": "1 41240U 16002A   25343.79875578 -.00000048  00000+0  55130-4 0  9993",
        "tle_line2": "2 41240  66.0389 164.0074 0007147 270.6112  89.4088 12.87626359462867"
      },
      "geometry": {
        "type": "Point",
        "coordinates": [
          -106.04968101874903,
          66.0249412076897
        ]
      }
    },
    {
      "type": "Feature",
      "properties": {
        "norad_id": 41335,
        "name": "SENTINEL-3A",
        "group": "resource",
        "lat": -49.639040912316844,
        "lon": 59.534515902590314,
        "alt_km": 810.0269582765886,
        "timestamp": "2025-12-10T04:57:29.262923+00:00",
        "meta_object_name": "SENTINEL-3A",
        "meta_object_id": "2016-011A",
        "meta_epoch": "2025-12-09T19:05:43.404864",
        "meta_mean_motion": 14.26745028,
        "meta_eccentricity": 9.56e-05,
        "meta_inclination": 98.6211,
        "meta_ra_of_asc_node": 48.8471,
        "meta_arg_of_pericenter": 93.3556,
        "meta_mean_anomaly": 266.7734,
        "meta_ephemeris_type": 0,
        "meta_classification_type": "U",
        "meta_norad_cat_id": 41335,
        "meta_element_set_no": 999,
        "meta_rev_at_epoch": 51105,
        "meta_bstar": 0.00012672,
        "meta_mean_motion_dot": 2.63e-06,
        "meta_mean_motion_ddot": 0,
        "tle_line1": "1 41335U 16011A   25343.79564126  .00000263  00000+0  12672-3 0  9993",
        "tle_line2": "2 41335  98.6211  48.8471 0000956  93.3556 266.7734 14.26745028511054"
      },
      "geometry": {
        "type": "Point",
        "coordinates": [
          59.534515902590314,
          -49.639040912316844
        ]
      }
    }
  ]
}